C/2020 U3 (Rankin),e,30.1638,282.6606,124.3075,66.14213,0.0018323,0.96558138,1.1523,10/28.0/2022,2000,g 15.0,4.0
# From MPEC 2022-UE6
C/2020 U4 (PANSTARRS),h,04/08.4491/2022,167.0361,120.0362,69.6062,1.001907,5.354219,2000,7.0,4.0
# From MPEC 2022-UE6
C/2020 U5 (PANSTARRS),e,97.2702,107.3316,75.4262,4183,0.0000036,0.99910197,0.0000,04/27.9349/2022,2000,g  8.0,4.0
# From MPEC 2022-UE6
C/2020 V2 (ZTF),h,05/08.5540/2023,131.6110,212.3716,162.4267,1.000913,2.227880,2000,4.9,4.0
# From MPEC 2021-N06
P/2020 V3 (PANSTARRS),e,23.0324,198.2524,249.3831,8.379636,0.0406318,0.25649943,25.4196,10/28.0/2022,2000,g  8.3,4.0
# From MPEC 2022-K19
P/2020 V4 (Rankin),e,14.2438,203.4857,257.0070,9.361286,0.0344113,0.45003494,16.0729,10/28.0/2022,2000,g  9.0,4.0
# From MPEC 2021-BE3
P/2020 W1 (Rankin),e,10.7891,124.2693,265.0451,7.210678,0.0509026,0.26623529,47.5191,10/28.0/2022,2000,g 10.0,4.0
# From MPEC 2021-BE3
C/2020 W5 (Lemmon),h,11/30.0633/2020,88.5888,75.4829,24.4861,1.000677,3.364674,2000,15.0,4.0
# From MPEC 2022-L66
P/2020 WJ5 (Lemmon),e,22.2944,177.8108,338.2503,6.016484,0.0667867,0.17127228,32.2825,10/28.0/2022,2000,g  8.5,4.0
# From MPEC 2021-P47
P/2020 X1 (ATLAS),e,31.6925,56.0007,323.3736,4.529418,0.1022446,0.36554881,84.7882,10/28.0/2022,2000,g 13.0,4.0
# From MPEC 2021-U31
C/2020 X2 (ATLAS),e,18.1861,105.4365,347.3507,16.43444,0.0147935,0.76711565,10.5194,10/28.0/2022,2000,g 10.6,4.0
# From MPEC 2021-S45
C/2020 X4 (Leonard),e,80.6068,161.8825,140.3023,40.91975,0.0037653,0.87240899,2.6764,10/28.0/2022,2000,g  9.0,4.0
# From MPEC 2022-UE6
C/2020 Y2 (ATLAS),e,101.2978,26.5151,266.1086,1037,0.0000295,0.99697879,0.0000,06/17.7079/2022,2000,g  6.5,4.0
# From MPEC 2021-R75
C/2020 Y3 (ATLAS),e,83.1010,191.4418,341.9856,144.8729,0.0005652,0.98621132,0.0000,12/03.3697/2020,2000,g 13.5,4.0
# From MPEC 2022-H04
C/2021 A1 (Leonard),e,132.6930,255.8962,225.0974,28038,0.0000002,0.99997805,0.0000,01/03.2873/2022,2000,g  8.5,4.0
# From MPEC 2022-F14
C/2021 A2 (NEOWISE),e,106.9805,125.2189,338.8014,238.4597,0.0002677,0.99407768,0.0000,01/22.5175/2021,2000,g 13.5,4.0
# From MPEC 2022-ED3
C/2021 A4 (NEOWISE),e,111.5317,307.1137,204.7044,42.59066,0.0035459,0.97307217,0.0000,03/19.8665/2021,2000,g 16.0,4.0
# From MPEC 2021-BE3
P/2021 A5 (PANSTARRS),e,18.1857,328.7670,61.2845,3.047556,0.1852578,0.13988552,132.3953,10/28.0/2022,2000,g 15.0,4.0
# From MPEC 2022-K19
C/2021 A6 (PANSTARRS),e,75.6096,164.0784,351.6598,9924,0.0000010,0.99920121,0.0000,05/03.6278/2021,2000,g  7.0,4.0
# From MPEC 2022-M88
C/2021 A7 (NEOWISE),e,78.1502,154.5137,356.0282,2988,0.0000060,0.99934170,0.0000,07/15.2426/2021,2000,g 10.0,4.0
# From MPEC 2022-K19
C/2021 A9 (PANSTARRS),h,12/01.4247/2023,158.0218,314.8430,211.4531,1.002919,7.760295,2000,6.0,4.0
# From MPEC 2021-N06
C/2021 A10 (NEOWISE),e,151.9119,188.6607,82.3600,89.10826,0.0011717,0.98583382,0.0000,03/15.2336/2021,2000,g 19.0,4.0
# From MPEC 2022-L66
C/2021 B2 (PANSTARRS),e,38.0873,120.5404,334.9667,354.8338,0.0001475,0.99291984,0.0000,05/04.2976/2021,2000,g 14.0,4.0
# From MPEC 2021-N06
C/2021 B3 (NEOWISE),e,119.4815,67.2856,293.5473,34.65664,0.0048309,0.93765985,2.8804,10/28.0/2022,2000,g 13.5,4.0
# From MPEC 2022-ED3
C/2021 C1 (Rankin),e,143.0455,186.8996,336.2704,24008,0.0000003,0.99985508,0.0000,12/07.0297/2020,2000,g 11.5,4.0
# From MPEC 2021-U31
P/2021 C2 (PANSTARRS),e,21.9320,66.4672,78.7459,9.534359,0.0334786,0.48726238,20.4641,10/28.0/2022,2000,g 12.0,4.0
# From MPEC 2021-N06
C/2021 C3 (Catalina),e,122.1643,181.9279,357.1021,62.45378,0.0019969,0.96357189,1.2435,10/28.0/2022,2000,g 14.0,4.0
# From MPEC 2022-M88
C/2021 C4 (ATLAS),e,132.8537,194.2777,320.2191,1853906,0.0000000,0.99999757,0.0000,01/17.0974/2021,2000,g  9.0,4.0
# From MPEC 2022-QD9
C/2021 C5 (PANSTARRS),e,50.7819,323.6860,270.9210,2886,0.0000064,0.99887663,0.0000,02/11.0771/2023,2000,g  9.0,4.0
# From MPEC 2022-F14
C/2021 C6 (Lemmon),h,11/13.2587/2021,164.6257,332.1546,203.5538,1.001190,3.271282,2000,12.0,4.0
# From MPEC 2022-F14
C/2021 D1 (SWAN),e,31.4436,311.2564,72.2568,99.35304,0.0009953,0.99092154,0.0000,02/27.6996/2021,2000,g 13.0,4.0
# From MPEC 2022-P82
C/2021 D2 (ZTF),h,02/03.9861/2022,83.8242,305.6806,125.0288,1.001683,2.946274,2000,9.0,4.0
# From MPEC 2021-N06
A/2021 E2,e,167.4883,190.8233,342.4216,231.0111,0.0002807,0.99010369,0.0000,12/10.4434/2020,2000,g 15.0,2.0
# From MPEC 2022-UE6
C/2021 E3 (ZTF),h,06/11.9124/2022,112.5547,104.4708,228.8521,1.000906,1.777398,2000,8.5,4.0
# From MPEC 2022-M88
A/2021 E4,e,116.3612,171.1733,48.2673,631.9535,0.0000620,0.99260082,0.0000,04/25.2401/2022,2000,g 13.5,2.0
# From MPEC 2022-QD9
C/2021 F1 (Lemmon-PANSTARRS),e,107.3264,203.4536,146.8177,231.4669,0.0002799,0.99569955,0.0000,04/06.8651/2022,2000,g 13.5,4.0
# From MPEC 2021-J72
C/2021 G1 (Leonard),e,131.5542,270.7000,107.4619,74.60308,0.0015296,0.95411411,0.7081,10/28.0/2022,2000,g 14.0,4.0
# From MPEC 2022-UE6
C/2021 G2 (ATLAS),e,48.4728,221.1028,343.3486,4681,0.0000031,0.99893609,0.0000,09/09.8497/2024,2000,g  5.5,4.0
# From MPEC 2022-M21
C/2021 G3 (PANSTARRS),h,10/18.3394/2021,102.8789,147.4141,10.6178,1.000627,5.180651,2000,10.5,4.0
# From MPEC 2021-Y10
P/2021 HS (PANSTARRS),e,12.1672,262.3884,46.1020,4.194548,0.1147298,0.80999578,51.3609,10/28.0/2022,2000,g 22.0,4.0
# From MPEC 2022-C56
C/2021 J1 (Maury-Attard),e,92.7214,88.3421,147.3319,26.41534,0.0072597,0.93409203,4.4689,10/28.0/2022,2000,g 15.5,4.0
# From MPEC 2022-M88
C/2021 J2 (PANSTARRS),e,156.2123,23.3331,172.0440,118.0015,0.0007689,0.96011903,0.3080,10/28.0/2022,2000,g 12.0,4.0
# From MPEC 2021-S45
P/2021 J3 (ATLAS),e,14.5376,111.1734,126.0507,8.938616,0.0368807,0.44961348,44.6682,10/28.0/2022,2000,g  7.0,4.0
# From MPEC 2022-O08
C/2021 K1 (ATLAS),e,16.2757,140.9028,184.2797,12.68342,0.0218197,0.80304854,11.8182,10/28.0/2022,2000,g 11.0,4.0
# From MPEC 2022-O01
C/2021 K2 (MASTER),h,09/09.4355/2021,100.8507,282.2475,343.3558,1.001079,5.467703,2000,8.0,4.0
# From MPEC 2022-L66
C/2021 K3 (Catalina),h,02/03.0319/2022,134.7772,114.4540,182.0367,1.003032,5.229802,2000,10.0,4.0
# From MPEC 2021-W31
P/2021 L2 (Leonard),e,21.0698,266.6570,51.5126,4.049491,0.1209493,0.52129555,55.7114,10/28.0/2022,2000,g 17.0,4.0
# From MPEC 2022-UE6
C/2021 L3 (Borisov),h,02/13.8391/2022,78.5795,344.9715,91.6018,1.002593,8.457831,2000,6.0,4.0
# From MPEC 2022-ST7
P/2021 L4 (PANSTARRS),e,16.9599,243.2154,234.4936,3.165682,0.1749860,0.11838171,201.4506,10/28.0/2022,2000,g 13.5,4.0
# From MPEC 2022-TA0
P/2021 N1 (ZTF),e,11.5017,301.1636,21.2133,2.977532,0.1918313,0.67658293,97.5452,10/28.0/2022,2000,g 19.0,4.0
# From MPEC 2022-UE6
P/2021 N2 (Fuls),e,13.0619,221.7397,177.3998,6.935128,0.0539663,0.45248299,18.8009,10/28.0/2022,2000,g  9.5,4.0
# From MPEC 2022-OB6
C/2021 N3 (PANSTARRS),e,26.7415,337.4935,304.7556,155.9749,0.0005060,0.96335851,0.4044,10/28.0/2022,2000,g  8.5,4.0
# From MPEC 2022-A21
C/2021 O1 (Nishimura),e,27.5828,41.6135,74.4240,2374,0.0000085,0.99966874,0.0000,08/13.9516/2021,2000,g 10.5,4.0
# From MPEC 2022-L66
C/2021 O3 (PANSTARRS),h,04/21.0460/2022,56.7939,189.0187,299.9821,1.000086,0.287283,2000,10.5,4.0
# From MPEC 2022-CN4
C/2021 P1 (PANSTARRS),e,51.6365,359.6763,40.4428,2609,0.0000074,0.99832356,0.0000,06/02.2620/2022,2000,g 11.0,4.0
# From MPEC 2022-UE6
C/2021 P2 (PANSTARRS),e,150.0631,32.0772,76.6720,2540,0.0000077,0.99800422,0.0000,01/22.5697/2023,2000,g  9.0,4.0
# From MPEC 2021-W31
P/2021 P3 (PANSTARRS),e,27.1616,358.2396,334.1044,4.413246,0.1063082,0.33932189,54.8190,10/28.0/2022,2000,g 14.0,4.0
# From MPEC 2022-P82
C/2021 P4 (ATLAS),e,56.3105,348.0942,175.8177,320.9560,0.0001714,0.99663368,0.0000,07/30.3662/2022,2000,g  9.5,4.0
# From MPEC 2022-GA9
C/2021 Q3 (ATLAS),e,77.7707,307.9085,114.0977,75.37735,0.0015061,0.93095242,0.4139,10/28.0/2022,2000,g  8.0,4.0
# From MPEC 2022-UE6
C/2021 Q4 (Fuls),h,06/09.9665/2023,71.4729,183.3338,146.9664,1.003272,7.564978,2000,6.0,4.0
# From MPEC 2022-C56
P/2021 Q5 (ATLAS),e,10.7359,239.7584,180.9109,3.286368,0.1654359,0.62442231,70.0646,10/28.0/2022,2000,g 15.0,4.0
# From MPEC 2022-UE6
C/2021 Q6 (PANSTARRS),e,161.8476,133.5335,140.8950,13750,0.0000006,0.99936651,0.0000,03/22.8907/2024,2000,g  6.0,4.0
# From MPEC 2022-UE6
C/2021 QM45 (PANSTARRS),e,22.8223,354.5887,72.8087,352.9342,0.0001486,0.99214222,0.0000,08/13.4482/2022,2000,g 11.0,4.0
# From MPEC 2022-TA0
P/2021 R1 (PANSTARRS),e,5.5195,143.3759,220.3669,8.364848,0.0407396,0.41589680,12.8109,10/28.0/2022,2000,g 11.0,4.0
# From MPEC 2022-TA0
C/2021 R2 (PANSTARRS),e,134.4808,16.2943,32.4064,2420,0.0000083,0.99697842,0.0000,12/26.3979/2021,2000,g  7.5,4.0
# From MPEC 2021-W31
P/2021 R3 (PANSTARRS),e,19.9272,304.2090,2.8258,3.773695,0.1344478,0.33124225,69.8737,10/28.0/2022,2000,g 16.0,4.0
# From MPEC 2021-W31
P/2021 R4 (Wierzchos),e,21.0388,321.2587,56.6579,5.619645,0.0739845,0.58600059,28.0397,10/28.0/2022,2000,g 16.0,4.0
# From MPEC 2022-CN4
P/2021 R5 (Rankin),e,7.8547,219.9598,167.3998,4.793407,0.0939156,0.30676127,27.1149,10/28.0/2022,2000,g 12.0,4.0
# From MPEC 2021-W31
P/2021 R6 (Groeller),e,34.9269,176.1144,220.7605,6.276529,0.0626794,0.59331077,22.6279,10/28.0/2022,2000,g 14.5,4.0
# From MPEC 2022-ST7
C/2021 R7 (PANSTARRS),e,158.8451,170.1423,140.2610,912.0060,0.0000358,0.99380501,0.0000,04/16.5207/2021,2000,g 10.5,4.0
# From MPEC 2021-Y10
P/2021 R8 (Sheppard),e,2.2033,167.0280,190.7905,3.017204,0.1880602,0.29357992,72.5025,10/28.0/2022,2000,g 18.5,4.0
# From MPEC 2022-UE6
C/2021 S1 (ATLAS),h,02/28.9734/2022,52.0811,299.8770,148.1873,1.001572,6.119240,2000,7.0,4.0
# From MPEC 2022-UE6
C/2021 S3 (PANSTARRS),e,58.5349,215.6265,6.8851,20570,0.0000003,0.99993585,0.0000,02/14.7506/2024,2000,g  5.5,4.0
# From MPEC 2022-UE6
C/2021 S4 (Tsuchinshan),e,17.4801,5.4972,72.7640,164.3833,0.0004676,0.95929311,359.7988,10/28.0/2022,2000,g  6.5,4.0
# From MPEC 2022-OB6
C/2021 T1 (Lemmon),e,140.3516,56.8342,51.5230,1259,0.0000221,0.99757004,0.0000,10/14.0586/2021,2000,g 12.5,4.0
# From MPEC 2022-ED3
C/2021 T2 (Fuls),h,06/07.8954/2022,117.5311,223.2318,263.5952,1.000247,1.247730,2000,12.0,4.0
